[{"OBJECT_NAME":"OBJECT AL","OBJECT_ID":"2023-085AL","EPOCH":"2026-03-09T22:26:04.970400","MEAN_MOTION":15.31857284,"ECCENTRICITY":0.000802,"INCLINATION":97.4839,"RA_OF_ASC_NODE":180.0127,"ARG_OF_PERICENTER":78.7242,"MEAN_ANOMALY":281.49,"EPHEMERIS_TYPE":0,"CLASSIFICATION_TYPE":"U","NORAD_CAT_ID":57038,"ELEMENT_SET_NO":999,"REV_AT_EPOCH":15154,"BSTAR":0.0006591637,"MEAN_MOTION_DOT":0.00020246,"MEAN_MOTION_DDOT":0},{"OBJECT_NAME":"STARLINK-35200","OBJECT_ID":"2025-223B","EPOCH":"2026-03-09T22:35:50.501472","MEAN_MOTION":15.30206285,"ECCENTRICITY":9.463e-5,"INCLINATION":53.1606,"RA_OF_ASC_NODE":293.0452,"ARG_OF_PERICENTER":88.8161,"MEAN_ANOMALY":271.2948,"EPHEMERIS_TYPE":0,"CLASSIFICATION_TYPE":"U","NORAD_CAT_ID":65855,"ELEMENT_SET_NO":999,"REV_AT_EPOCH":2424,"BSTAR":0.001109,"MEAN_MOTION_DOT":0.00032637,"MEAN_MOTION_DDOT":0}]
